OBJECT_NAME,OBJECT_ID,EPOCH,MEAN_MOTION,ECCENTRICITY,INCLINATION,RA_OF_ASC_NODE,ARG_OF_PERICENTER,MEAN_ANOMALY,EPHEMERIS_TYPE,CLASSIFICATION_TYPE,NORAD_CAT_ID,ELEMENT_SET_NO,REV_AT_EPOCH,BSTAR,MEAN_MOTION_DOT,MEAN_MOTION_DDOT
ORBCOMM FM06,1997-084G,2026-07-09T15:09:40.589856,14.47619518,.0001103,45.0146,304.6600,214.6774,160.3014,0,U,25118,999,49764,.24654E-3,.771E-5,0
ORBCOMM FM04,1998-007C,2026-07-09T08:11:42.924192,14.35778345,.00418668,107.9632,215.0175,286.8433,72.8118,0,U,25159,999,47977,.20868928E-3,.477E-5,0
ORBCOMM FM19,1998-046C,2026-07-09T05:38:46.675680,14.39534177,.0003522,44.9926,138.7541,25.1321,113.6537,0,U,25415,999,45995,.26174806E-3,.681E-5,0
ORBCOMM FM20,1998-046D,2026-07-09T12:30:27.741024,14.38094219,.0001893,44.9929,145.5649,329.7671,30.3067,0,U,25416,999,46000,.17832E-3,.403E-5,0
ORBCOMM FM27,1998-053G,2026-07-09T02:57:46.989792,14.39178668,.00024285,45.0037,231.1611,270.1383,89.9187,0,U,25481,999,45339,.18513711E-3,.436E-5,0
ORBCOMM FM32,1999-065C,2026-07-08T08:29:01.779648,14.37161684,.00050345,45.0155,73.0491,157.9812,202.1253,0,U,25982,999,39013,.21018318E-3,.489E-5,0
ORBCOMM FM109,2014-040A,2026-07-09T16:46:34.391424,14.58869106,.0001708,47.0045,345.0517,305.9995,54.0732,0,U,40086,999,63763,.79544E-4,.205E-5,0
ORBCOMM FM110,2015-081D,2026-07-09T05:23:25.413216,14.58913742,.00032971,47.0014,257.2427,196.7550,163.3228,0,U,41182,999,56084,.10693737E-3,.335E-5,0
ORBCOMM FM118,2015-081E,2026-07-09T16:04:37.701984,14.58901309,.0002605,47.0032,255.4734,159.3058,200.7934,0,U,41183,999,56101,.69163E-4,.156E-5,0
ORBCOMM FM112,2015-081F,2026-07-09T14:31:57.192384,14.58932969,.0003985,46.9977,164.2335,305.2072,54.8440,0,U,41184,999,56222,.13198E-3,.453E-5,0
ORBCOMM FM113,2015-081G,2026-07-09T15:38:00.508128,14.58878427,.0002476,46.9993,164.4042,301.1460,58.9183,0,U,41185,999,56221,.79235E-4,.203E-5,0
ORBCOMM FM108,2015-081J,2026-07-09T03:13:06.419712,14.58904401,.00029274,47.0051,78.4302,300.2625,59.7971,0,U,41187,999,56328,.12629991E-3,.426E-5,0
ORBCOMM FM117,2015-081K,2026-07-08T01:44:24.310176,14.58889920,.00034342,47.0014,82.0783,302.2374,57.8178,0,U,41188,999,56317,.12375711E-3,.414E-5,0
ORBCOMM FM116,2015-081L,2026-07-09T15:04:05.673216,14.58902220,.0001341,47.0010,164.5128,214.5781,145.5017,0,U,41189,999,56221,.57341E-4,.1E-5,0
