ORBCOMM FM06            
1 25118U 97084G   26190.63171979  .00000771  00000+0  24654-3 0  9994
2 25118  45.0146 304.6600 0001103 214.6774 160.3014 14.47619518497645
ORBCOMM FM04            
1 25159U 98007C   26190.34146903  .00000477  00000+0  20869-3 0  9999
2 25159 107.9632 215.0175 0041866 286.8433  72.8118 14.35778345479770
ORBCOMM FM19            
1 25415U 98046C   26190.23526245  .00000681  00000+0  26175-3 0  9999
2 25415  44.9926 138.7541 0003522  25.1321 113.6537 14.39534177459950
ORBCOMM FM20            
1 25416U 98046D   26190.52115441  .00000403  00000+0  17832-3 0  9996
2 25416  44.9929 145.5649 0001893 329.7671  30.3067 14.38094219460007
ORBCOMM FM27            
1 25481U 98053G   26190.12346053  .00000436  00000+0  18514-3 0  9991
2 25481  45.0037 231.1611 0002428 270.1383  89.9187 14.39178668453395
ORBCOMM FM32            
1 25982U 99065C   26189.35349282  .00000489  00000+0  21018-3 0  9992
2 25982  45.0155  73.0491 0005034 157.9812 202.1253 14.37161684390139
ORBCOMM FM109           
1 40086U 14040A   26190.69900916  .00000205  00000+0  79544-4 0  9994
2 40086  47.0045 345.0517 0001708 305.9995  54.0732 14.58869106637635
ORBCOMM FM110           
1 41182U 15081D   26190.22459969  .00000335  00000+0  10694-3 0  9998
2 41182  47.0014 257.2427 0003297 196.7550 163.3228 14.58913742560849
ORBCOMM FM118           
1 41183U 15081E   26190.66988081  .00000156  00000+0  69163-4 0  9996
2 41183  47.0032 255.4734 0002605 159.3058 200.7934 14.58901309561017
ORBCOMM FM112           
1 41184U 15081F   26190.60552306  .00000453  00000+0  13198-3 0  9994
2 41184  46.9977 164.2335 0003985 305.2072  54.8440 14.58932969562228
ORBCOMM FM113           
1 41185U 15081G   26190.65139477  .00000203  00000+0  79235-4 0  9998
2 41185  46.9993 164.4042 0002476 301.1460  58.9183 14.58878427562210
ORBCOMM FM108           
1 41187U 15081J   26190.13410208  .00000426  00000+0  12630-3 0  9999
2 41187  47.0051  78.4302 0002927 300.2625  59.7971 14.58904401563280
ORBCOMM FM117           
1 41188U 15081K   26189.07250359  .00000414  00000+0  12376-3 0  9994
2 41188  47.0014  82.0783 0003434 302.2374  57.8178 14.58889920563175
ORBCOMM FM116           
1 41189U 15081L   26190.62784344  .00000100  00000+0  57341-4 0  9998
2 41189  47.0010 164.5128 0001341 214.5781 145.5017 14.58902220562213
